[{"OBJECT_NAME":"STARLINK-31921","OBJECT_ID":"2024-098L","EPOCH":"2026-03-09T12:11:39.854688","MEAN_MOTION":15.27557354,"ECCENTRICITY":0.00019779,"INCLINATION":43.0058,"RA_OF_ASC_NODE":238.6667,"ARG_OF_PERICENTER":279.3579,"MEAN_ANOMALY":80.7049,"EPHEMERIS_TYPE":0,"CLASSIFICATION_TYPE":"U","NORAD_CAT_ID":59868,"ELEMENT_SET_NO":999,"REV_AT_EPOCH":10227,"BSTAR":-0.00012765968,"MEAN_MOTION_DOT":-3.771e-5,"MEAN_MOTION_DDOT":0},{"OBJECT_NAME":"OBJECT BE","OBJECT_ID":"2025-313BE","EPOCH":"2026-03-09T16:43:59.380320","MEAN_MOTION":15.29801687,"ECCENTRICITY":0.00072083,"INCLINATION":97.3989,"RA_OF_ASC_NODE":145.3568,"ARG_OF_PERICENTER":335.3714,"MEAN_ANOMALY":24.7181,"EPHEMERIS_TYPE":0,"CLASSIFICATION_TYPE":"U","NORAD_CAT_ID":67482,"ELEMENT_SET_NO":999,"REV_AT_EPOCH":797,"BSTAR":0.0026504328,"MEAN_MOTION_DOT":0.00077178,"MEAN_MOTION_DDOT":0}]
